[{"OBJECT_NAME":"STARLINK-37193","OBJECT_ID":"2026-063L","EPOCH":"2026-04-07T08:00:06.545376","MEAN_MOTION":16.04778363,"ECCENTRICITY":0.00017418,"INCLINATION":97.2793,"RA_OF_ASC_NODE":238.5787,"ARG_OF_PERICENTER":126.2131,"MEAN_ANOMALY":233.9311,"EPHEMERIS_TYPE":0,"CLASSIFICATION_TYPE":"U","NORAD_CAT_ID":68390,"ELEMENT_SET_NO":999,"REV_AT_EPOCH":215,"BSTAR":9.119967e-6,"MEAN_MOTION_DOT":5.394e-5,"MEAN_MOTION_DDOT":2.289755e-6},{"OBJECT_NAME":"STARLINK-37216","OBJECT_ID":"2026-063M","EPOCH":"2026-04-07T20:00:00.999360","MEAN_MOTION":15.80764961,"ECCENTRICITY":0.0001157,"INCLINATION":97.2841,"RA_OF_ASC_NODE":238.9973,"ARG_OF_PERICENTER":82.1788,"MEAN_ANOMALY":356.2376,"EPHEMERIS_TYPE":0,"CLASSIFICATION_TYPE":"U","NORAD_CAT_ID":68391,"ELEMENT_SET_NO":999,"REV_AT_EPOCH":314,"BSTAR":0.00081921,"MEAN_MOTION_DOT":0.00159301,"MEAN_MOTION_DDOT":0},{"OBJECT_NAME":"STARLINK-37215","OBJECT_ID":"2026-063N","EPOCH":"2026-04-07T20:00:00.999360","MEAN_MOTION":15.80765501,"ECCENTRICITY":0.0001207,"INCLINATION":97.2842,"RA_OF_ASC_NODE":238.9989,"ARG_OF_PERICENTER":74.0463,"MEAN_ANOMALY":8.6489,"EPHEMERIS_TYPE":0,"CLASSIFICATION_TYPE":"U","NORAD_CAT_ID":68392,"ELEMENT_SET_NO":999,"REV_AT_EPOCH":314,"BSTAR":0.00083642,"MEAN_MOTION_DOT":0.00162718,"MEAN_MOTION_DDOT":0},{"OBJECT_NAME":"STARLINK-37184","OBJECT_ID":"2026-063P","EPOCH":"2026-04-07T20:00:00.999360","MEAN_MOTION":15.80753391,"ECCENTRICITY":0.00014,"INCLINATION":97.2842,"RA_OF_ASC_NODE":239.0007,"ARG_OF_PERICENTER":69.9269,"MEAN_ANOMALY":17.0422,"EPHEMERIS_TYPE":0,"CLASSIFICATION_TYPE":"U","NORAD_CAT_ID":68393,"ELEMENT_SET_NO":999,"REV_AT_EPOCH":314,"BSTAR":0.0010555,"MEAN_MOTION_DOT":0.00206301,"MEAN_MOTION_DDOT":0},{"OBJECT_NAME":"STARLINK-37157","OBJECT_ID":"2026-063Q","EPOCH":"2026-04-07T20:00:00.999360","MEAN_MOTION":15.80785902,"ECCENTRICITY":0.0001455,"INCLINATION":97.2838,"RA_OF_ASC_NODE":239.0019,"ARG_OF_PERICENTER":73.3277,"MEAN_ANOMALY":17.9078,"EPHEMERIS_TYPE":0,"CLASSIFICATION_TYPE":"U","NORAD_CAT_ID":68394,"ELEMENT_SET_NO":999,"REV_AT_EPOCH":314,"BSTAR":0.00070217,"MEAN_MOTION_DOT":0.0013629,"MEAN_MOTION_DDOT":0},{"OBJECT_NAME":"STARLINK-37172","OBJECT_ID":"2026-063R","EPOCH":"2026-04-07T20:00:00.999360","MEAN_MOTION":15.80814172,"ECCENTRICITY":0.0001941,"INCLINATION":97.2833,"RA_OF_ASC_NODE":239.0048,"ARG_OF_PERICENTER":81.2115,"MEAN_ANOMALY":18.54,"EPHEMERIS_TYPE":0,"CLASSIFICATION_TYPE":"U","NORAD_CAT_ID":68395,"ELEMENT_SET_NO":999,"REV_AT_EPOCH":314,"BSTAR":0.00049492,"MEAN_MOTION_DOT":0.00095702,"MEAN_MOTION_DDOT":0},{"OBJECT_NAME":"STARLINK-37190","OBJECT_ID":"2026-063S","EPOCH":"2026-04-07T20:00:00.999360","MEAN_MOTION":15.80810313,"ECCENTRICITY":0.0001583,"INCLINATION":97.2831,"RA_OF_ASC_NODE":239.0029,"ARG_OF_PERICENTER":54.5382,"MEAN_ANOMALY":40.911,"EPHEMERIS_TYPE":0,"CLASSIFICATION_TYPE":"U","NORAD_CAT_ID":68396,"ELEMENT_SET_NO":999,"REV_AT_EPOCH":314,"BSTAR":0.00075026,"MEAN_MOTION_DOT":0.0014596,"MEAN_MOTION_DDOT":0},{"OBJECT_NAME":"STARLINK-37194","OBJECT_ID":"2026-063T","EPOCH":"2026-04-07T20:00:00.999360","MEAN_MOTION":15.80767123,"ECCENTRICITY":0.0001188,"INCLINATION":97.2832,"RA_OF_ASC_NODE":239.0068,"ARG_OF_PERICENTER":68.9063,"MEAN_ANOMALY":35.1595,"EPHEMERIS_TYPE":0,"CLASSIFICATION_TYPE":"U","NORAD_CAT_ID":68397,"ELEMENT_SET_NO":999,"REV_AT_EPOCH":314,"BSTAR":0.00072826,"MEAN_MOTION_DOT":0.00141319,"MEAN_MOTION_DDOT":0},{"OBJECT_NAME":"STARLINK-37220","OBJECT_ID":"2026-063U","EPOCH":"2026-04-07T20:00:00.999360","MEAN_MOTION":15.80745378,"ECCENTRICITY":0.000153,"INCLINATION":97.283,"RA_OF_ASC_NODE":239.0111,"ARG_OF_PERICENTER":96.7331,"MEAN_ANOMALY":15.9088,"EPHEMERIS_TYPE":0,"CLASSIFICATION_TYPE":"U","NORAD_CAT_ID":68398,"ELEMENT_SET_NO":999,"REV_AT_EPOCH":314,"BSTAR":0.00098429,"MEAN_MOTION_DOT":0.00191984,"MEAN_MOTION_DDOT":0},{"OBJECT_NAME":"STARLINK-37187","OBJECT_ID":"2026-063V","EPOCH":"2026-04-07T20:00:00.999360","MEAN_MOTION":15.8081482,"ECCENTRICITY":8.03e-5,"INCLINATION":97.2832,"RA_OF_ASC_NODE":239.009,"ARG_OF_PERICENTER":38.6595,"MEAN_ANOMALY":69.6329,"EPHEMERIS_TYPE":0,"CLASSIFICATION_TYPE":"U","NORAD_CAT_ID":68399,"ELEMENT_SET_NO":999,"REV_AT_EPOCH":314,"BSTAR":0.00057639,"MEAN_MOTION_DOT":0.0011168,"MEAN_MOTION_DDOT":0},{"OBJECT_NAME":"STARLINK-36235","OBJECT_ID":"2026-063W","EPOCH":"2026-04-07T20:00:00.999360","MEAN_MOTION":15.80790283,"ECCENTRICITY":0.000137,"INCLINATION":97.2825,"RA_OF_ASC_NODE":239.0124,"ARG_OF_PERICENTER":101.0847,"MEAN_ANOMALY":15.7752,"EPHEMERIS_TYPE":0,"CLASSIFICATION_TYPE":"U","NORAD_CAT_ID":68400,"ELEMENT_SET_NO":999,"REV_AT_EPOCH":314,"BSTAR":0.0008598,"MEAN_MOTION_DOT":0.00167555,"MEAN_MOTION_DDOT":0},{"OBJECT_NAME":"STARLINK-37175","OBJECT_ID":"2026-063X","EPOCH":"2026-04-07T20:00:00.999360","MEAN_MOTION":15.80773384,"ECCENTRICITY":0.0001538,"INCLINATION":97.2824,"RA_OF_ASC_NODE":239.0148,"ARG_OF_PERICENTER":105.3184,"MEAN_ANOMALY":15.8071,"EPHEMERIS_TYPE":0,"CLASSIFICATION_TYPE":"U","NORAD_CAT_ID":68401,"ELEMENT_SET_NO":999,"REV_AT_EPOCH":314,"BSTAR":0.0011527,"MEAN_MOTION_DOT":0.00226038,"MEAN_MOTION_DDOT":0},{"OBJECT_NAME":"STARLINK-37218","OBJECT_ID":"2026-063Z","EPOCH":"2026-04-07T20:00:00.999360","MEAN_MOTION":15.80780506,"ECCENTRICITY":0.0001442,"INCLINATION":97.2822,"RA_OF_ASC_NODE":239.0209,"ARG_OF_PERICENTER":98.1432,"MEAN_ANOMALY":35.8364,"EPHEMERIS_TYPE":0,"CLASSIFICATION_TYPE":"U","NORAD_CAT_ID":68403,"ELEMENT_SET_NO":999,"REV_AT_EPOCH":314,"BSTAR":0.00074527,"MEAN_MOTION_DOT":0.00144771,"MEAN_MOTION_DDOT":0},{"OBJECT_NAME":"SHIYAN-33","OBJECT_ID":"2026-064A","EPOCH":"2026-04-07T18:43:12.983232","MEAN_MOTION":15.23274005,"ECCENTRICITY":0.0014033,"INCLINATION":97.4646,"RA_OF_ASC_NODE":173.6681,"ARG_OF_PERICENTER":187.6877,"MEAN_ANOMALY":172.4147,"EPHEMERIS_TYPE":0,"CLASSIFICATION_TYPE":"U","NORAD_CAT_ID":68405,"ELEMENT_SET_NO":999,"REV_AT_EPOCH":177,"BSTAR":0.00022237,"MEAN_MOTION_DOT":5.213e-5,"MEAN_MOTION_DDOT":0}]
