STARLINK-37193          
1 68390U 26063L   26097.33340909  .00005394  22898-5  91200-5 0  9990
2 68390  97.2793 238.5787 0001741 126.2131 233.9311 16.04778363  2159
STARLINK-37216          
1 68391U 26063M   26097.83334490  .00159301  00000+0  81921-3 0  9994
2 68391  97.2841 238.9973 0001157  82.1788 356.2376 15.80764961  3146
STARLINK-37215          
1 68392U 26063N   26097.83334490  .00162718  00000+0  83642-3 0  9993
2 68392  97.2842 238.9989 0001207  74.0463   8.6489 15.80765501  3145
STARLINK-37184          
1 68393U 26063P   26097.83334490  .00206301  00000+0  10555-2 0  9993
2 68393  97.2842 239.0007 0001400  69.9269  17.0422 15.80753391  3146
STARLINK-37157          
1 68394U 26063Q   26097.83334490  .00136290  00000+0  70217-3 0  9995
2 68394  97.2838 239.0019 0001455  73.3277  17.9078 15.80785902  3142
STARLINK-37172          
1 68395U 26063R   26097.83334490  .00095702  00000+0  49492-3 0  9999
2 68395  97.2833 239.0048 0001941  81.2115  18.5400 15.80814172  3147
STARLINK-37190          
1 68396U 26063S   26097.83334490  .00145960  00000+0  75026-3 0  9994
2 68396  97.2831 239.0029 0001583  54.5382  40.9110 15.80810313  3146
STARLINK-37194          
1 68397U 26063T   26097.83334490  .00141319  00000+0  72826-3 0  9994
2 68397  97.2832 239.0068 0001188  68.9063  35.1595 15.80767123  3140
STARLINK-37220          
1 68398U 26063U   26097.83334490  .00191984  00000+0  98429-3 0  9995
2 68398  97.2830 239.0111 0001530  96.7331  15.9088 15.80745378  3147
STARLINK-37187          
1 68399U 26063V   26097.83334490  .00111680  00000+0  57639-3 0  9999
2 68399  97.2832 239.0090 0000803  38.6595  69.6329 15.80814820  3148
STARLINK-36235          
1 68400U 26063W   26097.83334490  .00167555  00000+0  85980-3 0  9994
2 68400  97.2825 239.0124 0001370 101.0847  15.7752 15.80790283  3144
STARLINK-37175          
1 68401U 26063X   26097.83334490  .00226038  00000+0  11527-2 0  9992
2 68401  97.2824 239.0148 0001538 105.3184  15.8071 15.80773384  3145
STARLINK-37218          
1 68403U 26063Z   26097.83334490  .00144771  00000+0  74527-3 0  9997
2 68403  97.2822 239.0209 0001442  98.1432  35.8364 15.80780506  3143
SHIYAN-33               
1 68405U 26064A   26097.78001138  .00005213  00000+0  22237-3 0  9992
2 68405  97.4646 173.6681 0014033 187.6877 172.4147 15.23274005  1778
